NORAD_CAT_ID,OBJECT_NAME,OBJECT_TYPE,EPOCH,MEAN_MOTION,ECCENTRICITY,INCLINATION,RA_OF_ASC_NODE,ARG_OF_PERICENTER,MEAN_ANOMALY,BSTAR,MEAN_MOTION_DOT,MEAN_MOTION_DDOT,TLE_LINE0,TLE_LINE1,TLE_LINE2,SEMIMAJOR_AXIS,PERIOD,APOGEE,PERIGEE,DECAYED
51995.0,STARLINK-3636,PAYLOAD,2024-03-21 18:23:16,15.08829979,0.0001066,53.2187,1.995,128.6959,231.4128,6.9709e-06,-1.77e-06,0.0,0 STARLINK-3636,1 51995U 22025AR  24081.76616708 -.00000177  00000-0  69709-5 0  9998,2 51995  53.2187   1.9950 0001066 128.6959 231.4128 15.08829979112524,6917.911,95.438,540.513,539.039,0.0
51995.0,STARLINK-3636,PAYLOAD,2024-03-22 03:55:33,15.08874103,0.0001278,53.2182,0.2151,119.9576,240.1543,0.00062861,9.74e-05,0.0,0 STARLINK-3636,1 51995U 22025AR  24082.16357972  .00009740  00000-0  62861-3 0  9992,2 51995  53.2182   0.2151 0001278 119.9576 240.1543 15.08874103114100,6917.776,95.435,540.525,538.757,0.0
51995.0,STARLINK-3636,PAYLOAD,2024-03-23 00:35:36,15.08830067,0.0001083,53.2179,356.3509,53.0753,307.0339,5.1605e-05,5.33e-06,0.0,0 STARLINK-3636,1 51995U 22025AR  24083.02472452  .00000533  00000-0  51605-4 0  9995,2 51995  53.2179 356.3509 0001083  53.0753 307.0339 15.08830067114238,6917.911,95.438,540.525,539.027,0.0
51995.0,STARLINK-3636,PAYLOAD,2024-03-23 21:15:36,15.08844715,0.0001115,53.2171,352.491,47.0756,313.0329,-8.3929e-05,-1.623e-05,0.0,0 STARLINK-3636,1 51995U 22025AR  24083.88583508 -.00001623  00000-0 -83929-4 0  9991,2 51995  53.2171 352.4910 0001115  47.0756 313.0329 15.08844715114360,6917.866,95.437,540.502,538.96,0.0
51995.0,STARLINK-3636,PAYLOAD,2024-03-23 22:50:59,15.08847675,0.0001379,53.2172,352.193,60.4501,299.6629,-3.1252e-05,-7.85e-06,0.0,0 STARLINK-3636,1 51995U 22025AR  24083.95207414 -.00000785  00000-0 -31252-4 0  9998,2 51995  53.2172 352.1930 0001379  60.4501 299.6629 15.08847675112851,6917.857,95.437,540.676,538.768,0.0
51995.0,STARLINK-3636,PAYLOAD,2024-03-24 03:37:07,15.08860939,0.0001228,53.218,351.294,89.6956,270.4176,0.00021481,3.134e-05,0.0,0 STARLINK-3636,1 51995U 22025AR  24084.15078605  .00003134  00000-0  21481-3 0  9990,2 51995  53.2180 351.2940 0001228  89.6956 270.4176 15.08860939114406,6917.816,95.436,540.531,538.832,0.0
51995.0,STARLINK-3636,PAYLOAD,2024-03-24 21:06:22,15.08855472,0.00014,53.2188,348.0178,108.4934,251.6211,0.00056638,8.741e-05,0.0,0 STARLINK-3636,1 51995U 22025AR  24084.87943098  .00008741  00000-0  56638-3 0  9997,2 51995  53.2188 348.0178 0001400 108.4934 251.6211 15.08855472114518,6917.833,95.437,540.667,538.73,0.0
51995.0,STARLINK-3636,PAYLOAD,2024-03-24 22:41:45,15.08853123,0.0001404,53.2184,347.7207,111.3819,248.7323,0.00046297,7.09e-05,0.0,0 STARLINK-3636,1 51995U 22025AR  24084.94567058  .00007090  00000-0  46297-3 0  9999,2 51995  53.2184 347.7207 0001404 111.3819 248.7323 15.08853123113007,6917.84,95.437,540.677,538.734,0.0
51995.0,STARLINK-3636,PAYLOAD,2024-03-25 03:27:55,15.08843814,0.0001229,53.2185,346.8339,88.1168,271.9965,0.00019456,2.81e-05,0.0,0 STARLINK-3636,1 51995U 22025AR  24085.14439251  .00002810  00000-0  19456-3 0  9997,2 51995  53.2185 346.8339 0001229  88.1168 271.9965 15.08843814114554,6917.869,95.437,540.584,538.884,0.0
51995.0,STARLINK-3636,PAYLOAD,2024-03-25 09:49:27,15.08859324,0.0001295,53.2186,345.6493,91.3841,268.73,0.00038024,5.772e-05,0.0,0 STARLINK-3636,1 51995U 22025AR  24085.40934385  .00005772  00000-0  38024-3 0  9996,2 51995  53.2186 345.6493 0001295  91.3841 268.7300 15.08859324114594,6917.821,95.436,540.582,538.79,0.0
51995.0,STARLINK-3636,PAYLOAD,2024-03-25 20:57:10,15.08820234,0.0001432,53.2189,343.5682,91.4607,268.6549,-0.00035715,-5.964e-05,0.0,0 STARLINK-3636,1 51995U 22025AR  24085.87304193 -.00005964  00000-0 -35715-3 0  9994,2 51995  53.2189 343.5682 0001432  91.4607 268.6549 15.08820234114668,6917.941,95.439,540.796,538.815,0.0
51995.0,STARLINK-3636,PAYLOAD,2024-03-25 22:32:33,15.0882208,0.0001502,53.2189,343.2712,90.3578,269.7586,-0.00031379,-5.276e-05,0.0,0 STARLINK-3636,1 51995U 22025AR  24085.93928230 -.00005276  00000-0 -31379-3 0  9993,2 51995  53.2189 343.2712 0001502  90.3578 269.7586 15.08822080113159,6917.935,95.439,540.839,538.761,0.0
51995.0,STARLINK-3636,PAYLOAD,2024-03-26 09:40:15,15.08840177,0.0001126,53.218,341.1878,76.2108,283.9009,0.00011916,1.609e-05,0.0,0 STARLINK-3636,1 51995U 22025AR  24086.40295869  .00001609  00000-0  11916-3 0  9990,2 51995  53.2180 341.1878 0001126  76.2108 283.9009 15.08840177114745,6917.88,95.438,540.524,538.966,0.0
51995.0,STARLINK-3636,PAYLOAD,2024-03-26 20:47:58,15.08834927,0.0001585,53.2186,339.1101,88.4036,271.7138,0.00018357,2.634e-05,0.0,0 STARLINK-3636,1 51995U 22025AR  24086.86664500  .00002634  00000-0  18357-3 0  9997,2 51995  53.2186 339.1101 0001585  88.4036 271.7138 15.08834927114813,6917.896,95.438,540.857,538.664,0.0
51995.0,STARLINK-3636,PAYLOAD,2024-03-26 22:23:21,15.08837552,0.000163,53.2183,338.8127,95.5984,264.5194,0.00025605,3.789e-05,0.0,0 STARLINK-3636,1 51995U 22025AR  24086.93288392  .00003789  00000-0  25605-3 0  9992,2 51995  53.2183 338.8127 0001630  95.5984 264.5194 15.08837552113308,6917.888,95.438,540.88,538.625,0.0
51995.0,STARLINK-3636,PAYLOAD,2024-03-26 23:58:43,15.08852941,0.000131,53.2169,338.5106,88.9003,271.2139,0.00050315,7.732e-05,0.0,0 STARLINK-3636,1 51995U 22025AR  24086.99911644  .00007732  00000-0  50315-3 0  9999,2 51995  53.2169 338.5106 0001310  88.9003 271.2139 15.08852941114831,6917.841,95.437,540.612,538.8,0.0
51995.0,STARLINK-3636,PAYLOAD,2024-03-27 15:52:34,15.08849984,0.0001566,53.2167,335.5415,95.8882,264.2289,0.00028416,4.239e-05,0.0,0 STARLINK-3636,1 51995U 22025AR  24087.66151569  .00004239  00000-0  28416-3 0  9992,2 51995  53.2167 335.5415 0001566  95.8882 264.2289 15.08849984114936,6917.85,95.437,540.798,538.632,0.0
51995.0,STARLINK-3636,PAYLOAD,2024-03-27 23:49:31,15.08834921,0.0001624,53.2173,334.0447,68.0448,292.0716,0.0001317,1.808e-05,0.0,0 STARLINK-3636,1 51995U 22025AR  24087.99272630  .00001808  00000-0  13170-3 0  9991,2 51995  53.2173 334.0447 0001624  68.0448 292.0716 15.08834921114981,6917.896,95.438,540.884,538.637,0.0
51995.0,STARLINK-3636,PAYLOAD,2024-03-28 09:21:50,15.08837841,0.0001428,53.2172,332.2631,76.6758,283.4393,6.0819e-05,6.8e-06,0.0,0 STARLINK-3636,1 51995U 22025AR  24088.39016471  .00000680  00000-0  60819-4 0  9995,2 51995  53.2172 332.2631 0001428  76.6758 283.4393 15.08837841113524,6917.887,95.438,540.74,538.764,0.0
51995.0,STARLINK-3636,PAYLOAD,2024-03-28 22:04:55,15.08842434,0.0001485,53.2173,329.8887,90.1118,270.0045,5.1784e-05,5.36e-06,0.0,0 STARLINK-3636,1 51995U 22025AR  24088.92008830  .00000536  00000-0  51784-4 0  9995,2 51995  53.2173 329.8887 0001485  90.1118 270.0045 15.08842434113603,6917.873,95.437,540.765,538.711,0.0
51995.0,STARLINK-3636,PAYLOAD,2024-03-29 09:12:36,15.08855371,0.000149,53.2175,327.804,77.0304,283.0855,0.00031359,4.708e-05,0.0,0 STARLINK-3636,1 51995U 22025AR  24089.38375717  .00004708  00000-0  31359-3 0  9997,2 51995  53.2175 327.8040 0001490  77.0304 283.0855 15.08855371115194,6917.833,95.437,540.729,538.668,0.0
51995.0,STARLINK-3636,PAYLOAD,2024-03-29 21:55:42,15.08841844,0.0001503,53.2188,325.4251,85.9877,274.1286,0.00019378,2.798e-05,0.0,0 STARLINK-3636,1 51995U 22025AR  24089.91368391  .00002798  00000-0  19378-3 0  9990,2 51995  53.2188 325.4251 0001503  85.9877 274.1286 15.08841844113753,6917.875,95.437,540.78,538.7,0.0
51995.0,STARLINK-3636,PAYLOAD,2024-03-30 09:03:23,15.08852767,0.0001617,53.2179,323.3475,77.9328,282.1845,0.00033589,5.064e-05,0.0,0 STARLINK-3636,1 51995U 22025AR  24090.37735980  .00005064  00000-0  33589-3 0  9993,2 51995  53.2179 323.3475 0001617  77.9328 282.1845 15.08852767113820,6917.841,95.437,540.825,538.588,0.0
51995.0,STARLINK-3636,PAYLOAD,2024-03-30 21:46:29,15.08844157,0.0001508,53.2174,320.9673,90.4347,269.6818,0.00018751,2.698e-05,0.0,0 STARLINK-3636,1 51995U 22025AR  24090.90728764  .00002698  00000-0  18751-3 0  9998,2 51995  53.2174 320.9673 0001508  90.4347 269.6818 15.08844157115420,6917.868,95.437,540.776,538.689,0.0
51995.0,STARLINK-3636,PAYLOAD,2024-03-31 00:57:15,15.08844741,0.0001476,53.2185,320.372,88.5686,271.5475,0.00017051,2.427e-05,0.0,0 STARLINK-3636,1 51995U 22025AR  24091.03976401  .00002427  00000-0  17051-3 0  9998,2 51995  53.2185 320.3720 0001476  88.5686 271.5475 15.08844741113920,6917.866,95.437,540.752,538.71,0.0
51995.0,STARLINK-3636,PAYLOAD,2024-03-31 21:37:16,15.08846429,0.0001329,53.2185,316.5071,81.3137,278.8005,0.00032286,4.855e-05,0.0,0 STARLINK-3636,1 51995U 22025AR  24091.90088253  .00004855  00000-0  32286-3 0  9997,2 51995  53.2185 316.5071 0001329  81.3137 278.8005 15.08846429114054,6917.861,95.437,540.645,538.806,0.0
51995.0,STARLINK-3636,PAYLOAD,2024-04-01 21:28:04,15.08820389,0.0001164,53.2177,312.0468,83.0434,277.0691,-6.8906e-05,-1.384e-05,0.0,0 STARLINK-3636,1 51995U 22025AR  24092.89450131 -.00001384  00000-0 -68906-4 0  9999,2 51995  53.2177 312.0468 0001164  83.0434 277.0691 15.08820389115726,6917.94,95.439,540.611,539.0,0.0
51995.0,STARLINK-3636,PAYLOAD,2024-04-02 07:00:24,15.08829877,0.0001196,53.2176,310.2615,85.4225,274.6904,0.0003746,5.677e-05,0.0,0 STARLINK-3636,1 51995U 22025AR  24093.29194448  .00005677  00000-0  37460-3 0  9997,2 51995  53.2176 310.2615 0001196  85.4225 274.6904 15.08829877115785,6917.911,95.438,540.604,538.949,0.0
51995.0,STARLINK-3636,PAYLOAD,2024-04-02 21:18:51,15.08846882,0.0001096,53.2169,307.5862,85.3757,274.736,0.00058225,8.992e-05,0.0,0 STARLINK-3636,1 51995U 22025AR  24093.88810173  .00008992  00000-0  58225-3 0  9997,2 51995  53.2169 307.5862 0001096  85.3757 274.7360 15.08846882114352,6917.859,95.437,540.483,538.966,0.0
51995.0,STARLINK-3636,PAYLOAD,2024-04-03 14:48:05,15.08856928,0.0001197,53.2179,304.3163,91.8652,268.2477,0.00042875,6.545e-05,0.0,0 STARLINK-3636,1 51995U 22025AR  24094.61673532  .00006545  00000-0  42875-3 0  9991,2 51995  53.2179 304.3163 0001197  91.8652 268.2477 15.08856928114461,6917.829,95.436,540.522,538.866,0.0
